{"type": "FeatureCollection", "features": [ {"type": "Feature", "properties": {"norad_id": 38809, "name": "FENGYUN 1C DEB", "group": "fengyun-1c-debris", "lat": 28.300151653519134, "lon": -165.1929729803293, "alt_km": 946.2715892514543, "timestamp": "2025-12-26T09:30:53.928560+00:00", "meta": {"OBJECT_NAME": "FENGYUN 1C DEB", "OBJECT_ID": "1999-025EUZ", "EPOCH": "2025-12-23T19:49:43.140000", "MEAN_MOTION": 14.18201814, "ECCENTRICITY": 0.02225154, "INCLINATION": 98.5892, "RA_OF_ASC_NODE": 7.6495, "ARG_OF_PERICENTER": 295.9236, "MEAN_ANOMALY": 61.9159, "EPHEMERIS_TYPE": 0, "CLASSIFICATION_TYPE": "U", "NORAD_CAT_ID": 38809, "ELEMENT_SET_NO": 999, "REV_AT_EPOCH": 69363, "BSTAR": 0.00046429524, "MEAN_MOTION_DOT": 1.172e-05, "MEAN_MOTION_DDOT": 0}, "tle": {"line1": "1 38809U 99025EUZ 25357.82619375  .00001172  00000+0  46430-3 0  9996", "line2": "2 38809  98.5892   7.6495 0222515 295.9236  61.9159 14.18201814693633"}}, "geometry": {"type": "Point", "coordinates": [-165.1929729803293, 28.300151653519134]}}, {"type": "Feature", "properties": {"norad_id": 38813, "name": "FENGYUN 1C DEB", "group": "fengyun-1c-debris", "lat": -5.7440833848552835, "lon": -0.7309029674704495, "alt_km": 827.7482817355913, "timestamp": "2025-12-26T09:30:53.928570+00:00", "meta": {"OBJECT_NAME": "FENGYUN 1C DEB", "OBJECT_ID": "1999-025EVD", "EPOCH": "2025-12-20T06:26:16.727424", "MEAN_MOTION": 14.20180408, "ECCENTRICITY": 0.00066213, "INCLINATION": 99.3456, "RA_OF_ASC_NODE": 351.851, "ARG_OF_PERICENTER": 94.7535, "MEAN_ANOMALY": 265.4396, "EPHEMERIS_TYPE": 0, "CLASSIFICATION_TYPE": "U", "NORAD_CAT_ID": 38813, "ELEMENT_SET_NO": 999, "REV_AT_EPOCH": 48357, "BSTAR": 0.00039057682, "MEAN_MOTION_DOT": 7.85e-06, "MEAN_MOTION_DDOT": 0}, "tle": {"line1": "1 38813U 99025EVD 25354.26824916  .00000785  00000+0  39058-3 0  9992", "line2": "2 38813  99.3456 351.8510 0006621  94.7535 265.4396 14.20180408483572"}}, "geometry": {"type": "Point", "coordinates": [-0.7309029674704495, -5.7440833848552835]}}, {"type": "Feature", "properties": {"norad_id": 38817, "name": "FENGYUN 1C DEB", "group": "fengyun-1c-debris", "lat": 17.087592671934964, "lon": 51.73091440639363, "alt_km": 1237.1730157717857, "timestamp": "2025-12-26T09:30:53.928580+00:00", "meta": {"OBJECT_NAME": "FENGYUN 1C DEB", "OBJECT_ID": "1999-025EVH", "EPOCH": "2025-12-23T20:35:47.170176", "MEAN_MOTION": 13.57734198, "ECCENTRICITY": 0.0291793, "INCLINATION": 98.6001, "RA_OF_ASC_NODE": 226.8391, "ARG_OF_PERICENTER": 15.5256, "MEAN_ANOMALY": 345.4607, "EPHEMERIS_TYPE": 0, "CLASSIFICATION_TYPE": "U", "NORAD_CAT_ID": 38817, "ELEMENT_SET_NO": 999, "REV_AT_EPOCH": 65985, "BSTAR": 0.0022277, "MEAN_MOTION_DOT": 2.078e-05, "MEAN_MOTION_DDOT": 0}, "tle": {"line1": "1 38817U 99025EVH 25357.85818484  .00002078  00000+0  22277-2 0  9998", "line2": "2 38817  98.6001 226.8391 0291793  15.5256 345.4607 13.57734198659859"}}, "geometry": {"type": "Point", "coordinates": [51.73091440639363, 17.087592671934964]}}, {"type": "Feature", "properties": {"norad_id": 38818, "name": "FENGYUN 1C DEB", "group": "fengyun-1c-debris", "lat": 40.97182637552587, "lon": -116.46082767097367, "alt_km": 745.0531760022304, "timestamp": "2025-12-26T09:30:53.928591+00:00", "meta": {"OBJECT_NAME": "FENGYUN 1C DEB", "OBJECT_ID": "1999-025EVJ", "EPOCH": "2025-12-19T22:33:15.721056", "MEAN_MOTION": 14.39504218, "ECCENTRICITY": 0.0088399, "INCLINATION": 98.2985, "RA_OF_ASC_NODE": 50.005, "ARG_OF_PERICENTER": 78.086, "MEAN_ANOMALY": 98.6617, "EPHEMERIS_TYPE": 0, "CLASSIFICATION_TYPE": "U", "NORAD_CAT_ID": 38818, "ELEMENT_SET_NO": 999, "REV_AT_EPOCH": 67351, "BSTAR": 0.00027316, "MEAN_MOTION_DOT": 8.48e-06, "MEAN_MOTION_DDOT": 0}, "tle": {"line1": "1 38818U 99025EVJ 25353.93976529  .00000848  00000+0  27316-3 0  9992", "line2": "2 38818  98.2985  50.0050 0088399  78.0860  98.6617 14.39504218673513"}}, "geometry": {"type": "Point", "coordinates": [-116.46082767097367, 40.97182637552587]}}, {"type": "Feature", "properties": {"norad_id": 38819, "name": "FENGYUN 1C DEB", "group": "fengyun-1c-debris", "lat": -11.653399314352418, "lon": 171.04710994385138, "alt_km": 785.2693258843428, "timestamp": "2025-12-26T09:30:53.928601+00:00", "meta": {"OBJECT_NAME": "FENGYUN 1C DEB", "OBJECT_ID": "1999-025EVK", "EPOCH": "2025-12-21T05:24:44.153856", "MEAN_MOTION": 14.19385553, "ECCENTRICITY": 0.0080075, "INCLINATION": 98.6179, "RA_OF_ASC_NODE": 347.8087, "ARG_OF_PERICENTER": 169.9002, "MEAN_ANOMALY": 253.6403, "EPHEMERIS_TYPE": 0, "CLASSIFICATION_TYPE": "U", "NORAD_CAT_ID": 38819, "ELEMENT_SET_NO": 999, "REV_AT_EPOCH": 63598, "BSTAR": 0.00031541, "MEAN_MOTION_DOT": 6.42e-06, "MEAN_MOTION_DDOT": 0}, "tle": {"line1": "1 38819U 99025EVK 25355.22551104  .00000642  00000+0  31541-3 0  9992", "line2": "2 38819  98.6179 347.8087 0080075 169.9002 253.6403 14.19385553635983"}}, "geometry": {"type": "Point", "coordinates": [171.04710994385138, -11.653399314352418]}}, {"type": "Feature", "properties": {"norad_id": 38827, "name": "FENGYUN 1C DEB", "group": "fengyun-1c-debris", "lat": 71.44234724252136, "lon": -3.163305911615302, "alt_km": 920.9572357447305, "timestamp": "2025-12-26T09:30:53.928611+00:00", "meta": {"OBJECT_NAME": "FENGYUN 1C DEB", "OBJECT_ID": "1999-025EVT", "EPOCH": "2025-12-22T07:57:58.637952", "MEAN_MOTION": 14.32909061, "ECCENTRICITY": 0.02157809, "INCLINATION": 98.3849, "RA_OF_ASC_NODE": 18.9611, "ARG_OF_PERICENTER": 284.2489, "MEAN_ANOMALY": 73.4818, "EPHEMERIS_TYPE": 0, "CLASSIFICATION_TYPE": "U", "NORAD_CAT_ID": 38827, "ELEMENT_SET_NO": 999, "REV_AT_EPOCH": 61197, "BSTAR": 0.00094975527, "MEAN_MOTION_DOT": 3.312e-05, "MEAN_MOTION_DDOT": 0}, "tle": {"line1": "1 38827U 99025EVT 25356.33192868  .00003312  00000+0  94976-3 0  9990", "line2": "2 38827  98.3849  18.9611 0215780 284.2489  73.4818 14.32909061611977"}}, "geometry": {"type": "Point", "coordinates": [-3.163305911615302, 71.44234724252136]}}, {"type": "Feature", "properties": {"norad_id": 38829, "name": "FENGYUN 1C DEB", "group": "fengyun-1c-debris", "lat": -67.60590905227002, "lon": 37.920845815399005, "alt_km": 854.9282763538149, "timestamp": "2025-12-26T09:30:53.928621+00:00", "meta": {"OBJECT_NAME": "FENGYUN 1C DEB", "OBJECT_ID": "1999-025EVV", "EPOCH": "2025-12-24T06:43:17.691168", "MEAN_MOTION": 14.09239954, "ECCENTRICITY": 0.00407032, "INCLINATION": 98.7492, "RA_OF_ASC_NODE": 13.9194, "ARG_OF_PERICENTER": 358.0019, "MEAN_ANOMALY": 2.0983, "EPHEMERIS_TYPE": 0, "CLASSIFICATION_TYPE": "U", "NORAD_CAT_ID": 38829, "ELEMENT_SET_NO": 999, "REV_AT_EPOCH": 64295, "BSTAR": 0.00056817994, "MEAN_MOTION_DOT": 9.53e-06, "MEAN_MOTION_DDOT": 0}, "tle": {"line1": "1 38829U 99025EVV 25358.28006587  .00000953  00000+0  56818-3 0  9991", "line2": "2 38829  98.7492  13.9194 0040703 358.0019   2.0983 14.09239954642952"}}, "geometry": {"type": "Point", "coordinates": [37.920845815399005, -67.60590905227002]}}, {"type": "Feature", "properties": {"norad_id": 38832, "name": "FENGYUN 1C DEB", "group": "fengyun-1c-debris", "lat": 40.67872929699648, "lon": -126.89411596955529, "alt_km": 916.5718876018627, "timestamp": "2025-12-26T09:30:53.928632+00:00", "meta": {"OBJECT_NAME": "FENGYUN 1C DEB", "OBJECT_ID": "1999-025EVY", "EPOCH": "2025-12-24T02:09:06.186816", "MEAN_MOTION": 14.04532991, "ECCENTRICITY": 0.00836335, "INCLINATION": 99.2651, "RA_OF_ASC_NODE": 42.6878, "ARG_OF_PERICENTER": 11.1486, "MEAN_ANOMALY": 349.1508, "EPHEMERIS_TYPE": 0, "CLASSIFICATION_TYPE": "U", "NORAD_CAT_ID": 38832, "ELEMENT_SET_NO": 999, "REV_AT_EPOCH": 63917, "BSTAR": 0.00096745057, "MEAN_MOTION_DOT": 1.547e-05, "MEAN_MOTION_DDOT": 0}, "tle": {"line1": "1 38832U 99025EVY 25358.08965494  .00001547  00000+0  96745-3 0  9997", "line2": "2 38832  99.2651  42.6878 0083633  11.1486 349.1508 14.04532991639171"}}, "geometry": {"type": "Point", "coordinates": [-126.89411596955529, 40.67872929699648]}}, {"type": "Feature", "properties": {"norad_id": 39537, "name": "FENGYUN 1C DEB", "group": "fengyun-1c-debris", "lat": 64.97068884861267, "lon": 125.60200845282014, "alt_km": 1010.4808420420932, "timestamp": "2025-12-26T09:30:53.928642+00:00", "meta": {"OBJECT_NAME": "FENGYUN 1C DEB", "OBJECT_ID": "1999-025EWE", "EPOCH": "2025-12-19T15:51:43.070688", "MEAN_MOTION": 13.84193589, "ECCENTRICITY": 0.0177797, "INCLINATION": 99.1526, "RA_OF_ASC_NODE": 139.2359, "ARG_OF_PERICENTER": 322.4144, "MEAN_ANOMALY": 36.4691, "EPHEMERIS_TYPE": 0, "CLASSIFICATION_TYPE": "U", "NORAD_CAT_ID": 39537, "ELEMENT_SET_NO": 999, "REV_AT_EPOCH": 59352, "BSTAR": 0.0010435, "MEAN_MOTION_DOT": 1.271e-05, "MEAN_MOTION_DDOT": 0}, "tle": {"line1": "1 39537U 99025EWE 25353.66091517  .00001271  00000+0  10435-2 0  9990", "line2": "2 39537  99.1526 139.2359 0177797 322.4144  36.4691 13.84193589593525"}}, "geometry": {"type": "Point", "coordinates": [125.60200845282014, 64.97068884861267]}}, {"type": "Feature", "properties": {"norad_id": 39541, "name": "FENGYUN 1C DEB", "group": "fengyun-1c-debris", "lat": 53.31731275730175, "lon": -125.90994048307564, "alt_km": 819.8886084292108, "timestamp": "2025-12-26T09:30:53.928655+00:00", "meta": {"OBJECT_NAME": "FENGYUN 1C DEB", "OBJECT_ID": "1999-025EWJ", "EPOCH": "2025-12-14T09:31:50.250432", "MEAN_MOTION": 14.20397112, "ECCENTRICITY": 0.00718166, "INCLINATION": 98.681, "RA_OF_ASC_NODE": 30.4764, "ARG_OF_PERICENTER": 68.7411, "MEAN_ANOMALY": 292.1416, "EPHEMERIS_TYPE": 0, "CLASSIFICATION_TYPE": "U", "NORAD_CAT_ID": 39541, "ELEMENT_SET_NO": 999, "REV_AT_EPOCH": 59026, "BSTAR": 0.00071004371, "MEAN_MOTION_DOT": 1.519e-05, "MEAN_MOTION_DDOT": 0}, "tle": {"line1": "1 39541U 99025EWJ 25348.39710938  .00001519  00000+0  71004-3 0  9999", "line2": "2 39541  98.6810  30.4764 0071816  68.7411 292.1416 14.20397112590267"}}, "geometry": {"type": "Point", "coordinates": [-125.90994048307564, 53.31731275730175]}}]}